STARLINK-2453_new
1 17845C 21018BL  21326.18332634 -.00017589  00000-0 -11787-2 0  3266
2 17845  53.0536  92.9245 0001385  80.4316 144.1491 15.06409958    14
STARLINK-2453_old
1 27845C 21018BL  21325.13349684  .00001766  00000-0  11834-3 0  3254
2 27845  53.0537  97.6371 0001330  81.3970 206.7474 15.06400764    15
